NORAD_CAT_ID,OBJECT_NAME,OBJECT_TYPE,EPOCH,MEAN_MOTION,ECCENTRICITY,INCLINATION,RA_OF_ASC_NODE,ARG_OF_PERICENTER,MEAN_ANOMALY,BSTAR,MEAN_MOTION_DOT,MEAN_MOTION_DDOT,TLE_LINE0,TLE_LINE1,TLE_LINE2,SEMIMAJOR_AXIS,PERIOD,APOGEE,PERIGEE,DECAYED
55429.0,STARLINK-5645,PAYLOAD,2023-09-01 07:09:17,14.98270073,0.0004319,69.9994,245.2053,265.1305,94.9361,-0.00015338,-1.92e-05,0.0,0 STARLINK-5645,1 55429U 23014AQ  23244.29811816 -.00001920  00000-0 -15338-3 0  9993,2 55429  69.9994 245.2053 0004319 265.1305  94.9361 14.98270073 32753,6950.378,96.111,575.245,569.241,0.0
55429.0,STARLINK-5645,PAYLOAD,2023-09-01 16:46:01,14.98350687,0.00037,69.998,244.195,266.4483,93.6252,-0.00019125,-2.376e-05,0.0,0 STARLINK-5645,1 55429U 23014AQ  23244.69863155 -.00002376  00000-0 -19125-3 0  9994,2 55429  69.9980 244.1950 0003700 266.4483  93.6252 14.98350687 32818,6950.129,96.106,574.565,569.422,0.0
55429.0,STARLINK-5645,PAYLOAD,2023-09-02 10:23:31,14.98331127,0.0003713,69.998,242.3394,268.6764,91.3969,1.3691e-05,7e-07,0.0,0 STARLINK-5645,1 55429U 23014AQ  23245.43299819  .00000070  00000-0  13691-4 0  9997,2 55429  69.9980 242.3394 0003713 268.6764  91.3969 14.98331127 32920,6950.189,96.107,574.635,569.474,0.0
55429.0,STARLINK-5645,PAYLOAD,2023-09-02 16:48:03,14.98330648,0.0003707,69.9981,241.6661,268.6443,91.4292,6.9702e-06,-1e-07,0.0,0 STARLINK-5645,1 55429U 23014AQ  23245.70003834 -.00000010  00000-0  69702-5 0  9997,2 55429  69.9981 241.6661 0003707 268.6443  91.4292 14.98330648 33903,6950.191,96.107,574.632,569.479,0.0
55429.0,STARLINK-5645,PAYLOAD,2023-09-03 08:49:24,14.98328347,0.0003552,69.9994,239.9833,268.9005,91.1747,-7.648e-06,-1.84e-06,0.0,0 STARLINK-5645,1 55429U 23014AQ  23246.36764047 -.00000184  00000-0 -76480-5 0  9994,2 55429  69.9994 239.9833 0003552 268.9005  91.1747 14.98328347 34000,6950.198,96.107,574.532,569.594,0.0
55429.0,STARLINK-5645,PAYLOAD,2023-09-03 16:50:04,14.98328016,0.0003565,69.9994,239.1417,269.2888,90.7863,-1.3886e-05,-2.59e-06,0.0,0 STARLINK-5645,1 55429U 23014AQ  23246.70144104 -.00000259  00000-0 -13886-4 0  9991,2 55429  69.9994 239.1417 0003565 269.2888  90.7863 14.98328016 33115,6950.199,96.107,574.542,569.586,0.0
55429.0,STARLINK-5645,PAYLOAD,2023-09-04 05:39:09,14.98325895,0.0003563,69.9995,237.7954,269.3081,90.7669,-1.891e-05,-3.19e-06,0.0,0 STARLINK-5645,1 55429U 23014AQ  23247.23552269 -.00000319  00000-0 -18910-4 0  9995,2 55429  69.9995 237.7954 0003563 269.3081  90.7669 14.98325895 34139,6950.206,96.107,574.547,569.594,0.0
55429.0,STARLINK-5645,PAYLOAD,2023-09-04 16:52:05,14.98328052,0.0003581,69.9995,236.617,269.7931,90.2817,5.5301e-06,-2.7e-07,0.0,0 STARLINK-5645,1 55429U 23014AQ  23247.70284134 -.00000027  00000-0  55301-5 0  9991,2 55429  69.9995 236.6170 0003581 269.7931  90.2817 14.98328052 33266,6950.199,96.107,574.553,569.575,0.0
55429.0,STARLINK-5645,PAYLOAD,2023-09-05 08:53:25,14.98331131,0.0003601,69.9995,234.9338,269.6708,90.4038,3.8336e-05,3.64e-06,0.0,0 STARLINK-5645,1 55429U 23014AQ  23248.37043860  .00000364  00000-0  38336-4 0  9995,2 55429  69.9995 234.9338 0003601 269.6708  90.4038 14.98331131 34302,6950.189,96.107,574.557,569.552,0.0
55429.0,STARLINK-5645,PAYLOAD,2023-09-05 16:54:06,14.98330741,0.0003596,69.9996,234.0918,269.5362,90.5385,2.8252e-05,2.44e-06,0.0,0 STARLINK-5645,1 55429U 23014AQ  23248.70423883  .00000244  00000-0  28252-4 0  9992,2 55429  69.9996 234.0918 0003596 269.5362  90.5385 14.98330741 33419,6950.191,96.107,574.555,569.556,0.0
55429.0,STARLINK-5645,PAYLOAD,2023-09-06 08:55:26,14.98331492,0.0003605,69.9996,232.4087,269.529,90.5456,4.785e-05,4.78e-06,0.0,0 STARLINK-5645,1 55429U 23014AQ  23249.37183750  .00000478  00000-0  47850-4 0  9996,2 55429  69.9996 232.4087 0003605 269.5290  90.5456 14.98331492 34457,6950.188,96.107,574.559,569.548,0.0
55429.0,STARLINK-5645,PAYLOAD,2023-09-07 08:57:27,14.98332092,0.0003492,70.0001,229.8838,268.4146,91.6613,-1.45e-05,-2.66e-06,0.0,0 STARLINK-5645,1 55429U 23014AQ  23250.37323798 -.00000266  00000-0 -14500-4 0  9999,2 55429  70.0001 229.8838 0003492 268.4146  91.6613 14.98332092 33669,6950.186,96.107,574.478,569.624,0.0
55429.0,STARLINK-5645,PAYLOAD,2023-09-08 07:23:20,14.98333252,0.0003269,70.0007,227.5278,270.9756,89.1029,3.4001e-05,3.13e-06,0.0,0 STARLINK-5645,1 55429U 23014AQ  23251.30787544  .00000313  00000-0  34001-4 0  9995,2 55429  70.0007 227.5278 0003269 270.9756  89.1029 14.98333252 34747,6950.183,96.107,574.32,569.776,0.0
55429.0,STARLINK-5645,PAYLOAD,2023-09-09 02:36:57,14.98325588,0.0002989,70.001,225.5079,258.4192,101.6632,-3.8949e-05,-5.58e-06,0.0,0 STARLINK-5645,1 55429U 23014AQ  23252.10900046 -.00000558  00000-0 -38949-4 0  9996,2 55429  70.0010 225.5079 0002989 258.4192 101.6632 14.98325588 33923,6950.207,96.107,574.149,569.994,0.0
55429.0,STARLINK-5645,PAYLOAD,2023-09-09 07:25:21,14.98329831,0.0003356,70.0001,225.003,270.6786,89.3989,-1.8995e-06,-1.16e-06,0.0,0 STARLINK-5645,1 55429U 23014AQ  23252.30927767 -.00000116  00000-0 -18995-5 0  9997,2 55429  70.0001 225.0030 0003356 270.6786  89.3989 14.98329831 34898,6950.193,96.107,574.391,569.726,0.0
55429.0,STARLINK-5645,PAYLOAD,2023-09-10 01:02:50,14.98331651,0.0003298,70.0004,223.1513,268.9396,91.1386,-4.5373e-06,-1.47e-06,0.0,0 STARLINK-5645,1 55429U 23014AQ  23253.04363607 -.00000147  00000-0 -45373-5 0  9990,2 55429  70.0004 223.1513 0003298 268.9396  91.1386 14.98331651 34062,6950.188,96.107,574.345,569.761,0.0
55429.0,STARLINK-5645,PAYLOAD,2023-09-10 07:27:22,14.98333443,0.0003247,70.0002,222.4782,266.0724,94.0064,8.6266e-06,1e-07,0.0,0 STARLINK-5645,1 55429U 23014AQ  23253.31067374  .00000010  00000-0  86266-5 0  9995,2 55429  70.0002 222.4782 0003247 266.0724  94.0064 14.98333443 35043,6950.182,96.107,574.304,569.791,0.0
55429.0,STARLINK-5645,PAYLOAD,2023-09-10 15:28:03,14.98315083,0.0003465,69.9998,221.6363,278.9371,81.1396,0.00022893,2.639e-05,0.0,0 STARLINK-5645,1 55429U 23014AQ  23253.64448111  .00002639  00000-0  22893-3 0  9996,2 55429  69.9998 221.6363 0003465 278.9371  81.1396 14.98315083 34158,6950.239,96.108,574.512,569.696,0.0
55429.0,STARLINK-5645,PAYLOAD,2023-09-11 07:29:23,14.98326273,0.0003357,70.0002,219.9536,270.3221,89.7553,1.3869e-06,-7.6e-07,0.0,0 STARLINK-5645,1 55429U 23014AQ  23254.31208001 -.00000076  00000-0  13869-5 0  9992,2 55429  70.0002 219.9536 0003357 270.3221  89.7553 14.98326273 34252,6950.204,96.107,574.403,569.736,0.0
55429.0,STARLINK-5645,PAYLOAD,2023-09-12 02:42:59,14.98335335,0.0003199,70.0009,217.9338,270.6343,89.445,2.6801e-05,2.27e-06,0.0,0 STARLINK-5645,1 55429U 23014AQ  23255.11319351  .00000227  00000-0  26801-4 0  9998,2 55429  70.0009 217.9338 0003199 270.6343  89.4450 14.98335335 34374,6950.176,96.107,574.265,569.818,0.0
55429.0,STARLINK-5645,PAYLOAD,2023-09-12 07:31:23,14.98334956,0.0002973,70.0006,217.4283,267.2465,92.8354,0.00011676,1.301e-05,0.0,0 STARLINK-5645,1 55429U 23014AQ  23255.31347046  .00001301  00000-0  11676-3 0  9999,2 55429  70.0006 217.4283 0002973 267.2465  92.8354 14.98334956 35348,6950.178,96.107,574.109,569.976,0.0
55429.0,STARLINK-5645,PAYLOAD,2023-09-13 01:08:53,14.98326397,0.0003246,70.0008,215.5769,270.0337,90.045,3.3097e-05,3.02e-06,0.0,0 STARLINK-5645,1 55429U 23014AQ  23256.04783665  .00000302  00000-0  33097-4 0  9993,2 55429  70.0008 215.5769 0003246 270.0337  90.0450 14.98326397 34517,6950.204,96.107,574.325,569.813,0.0
55429.0,STARLINK-5645,PAYLOAD,2023-09-13 07:33:24,14.98328882,0.0002923,70.0009,214.9038,267.5645,92.518,0.00016226,1.844e-05,0.0,0 STARLINK-5645,1 55429U 23014AQ  23256.31487185  .00001844  00000-0  16226-3 0  9997,2 55429  70.0009 214.9038 0002923 267.5645  92.5180 14.98328882 35490,6950.196,96.107,574.093,570.03,0.0
55429.0,STARLINK-5645,PAYLOAD,2023-09-13 21:58:38,14.98328699,0.000301,70.0011,213.3891,266.3957,93.6858,-0.00013571,-1.712e-05,0.0,0 STARLINK-5645,1 55429U 23014AQ  23256.91572051 -.00001712  00000-0 -13571-3 0  9996,2 55429  70.0011 213.3891 0003010 266.3957  93.6858 14.98328699 35584,6950.197,96.107,574.154,569.97,0.0
55429.0,STARLINK-5645,PAYLOAD,2023-09-14 02:47:02,14.98326458,0.0002753,70.0018,212.8849,262.3971,97.6876,-0.00013828,-1.742e-05,0.0,0 STARLINK-5645,1 55429U 23014AQ  23257.11600221 -.00001742  00000-0 -13828-3 0  9998,2 55429  70.0018 212.8849 0002753 262.3971  97.6876 14.98326458 34677,6950.204,96.107,573.982,570.155,0.0
55429.0,STARLINK-5645,PAYLOAD,2023-09-14 07:35:26,14.98325742,0.0002993,70.0013,212.3794,262.1874,97.8946,-0.00015559,-1.949e-05,0.0,0 STARLINK-5645,1 55429U 23014AQ  23257.31628294 -.00001949  00000-0 -15559-3 0  9992,2 55429  70.0013 212.3794 0002993 262.1874  97.8946 14.98325742 35645,6950.206,96.107,574.151,569.991,0.0
55429.0,STARLINK-5645,PAYLOAD,2023-09-15 02:49:03,14.9833112,0.0003173,70.0007,210.3598,266.0972,93.9825,-3.1569e-06,-1.31e-06,0.0,0 STARLINK-5645,1 55429U 23014AQ  23258.11739619 -.00000131  00000-0 -31569-5 0  9998,2 55429  70.0007 210.3598 0003173 266.0972  93.9825 14.98331120 34820,6950.189,96.107,574.26,569.849,0.0
55429.0,STARLINK-5645,PAYLOAD,2023-09-15 06:01:18,14.98332618,0.0003072,70.0009,210.023,262.4047,97.6763,4.7417e-05,4.73e-06,0.0,0 STARLINK-5645,1 55429U 23014AQ  23258.25091356  .00000473  00000-0  47417-4 0  9997,2 55429  70.0009 210.0230 0003072 262.4047  97.6763 14.98332618 35784,6950.185,96.107,574.185,569.915,0.0
55429.0,STARLINK-5645,PAYLOAD,2023-09-16 02:51:04,14.98325238,0.0003054,70.0009,207.8345,264.6956,95.3854,7.187e-05,7.65e-06,0.0,0 STARLINK-5645,1 55429U 23014AQ  23259.11879802  .00000765  00000-0  71870-4 0  9997,2 55429  70.0009 207.8345 0003054 264.6956  95.3854 14.98325238 34974,6950.208,96.107,574.195,569.95,0.0
55429.0,STARLINK-5645,PAYLOAD,2023-09-16 07:39:28,14.98324036,0.0003037,70.001,207.3293,265.8315,94.2497,0.00019503,2.234e-05,0.0,0 STARLINK-5645,1 55429U 23014AQ  23259.31907626  .00002234  00000-0  19503-3 0  9992,2 55429  70.0010 207.3293 0003037 265.8315  94.2497 14.98324036 35940,6950.211,96.107,574.187,569.966,0.0
